EUTELSAT 8 WEST B       
1 40875U 15039B   25365.39202318 -.00000049  00000+0  00000+0 0  9993
2 40875   0.0647 347.7484 0004136 292.0380 313.4043  1.00271506 37974
EUTELSAT 9B             
1 41310U 16005A   25365.39522987  .00000077  00000+0  00000+0 0  9999
2 41310   0.0411  61.5871 0004967 217.1121 332.6255  1.00271066 36431
EUTELSAT 65 WEST A      
1 41382U 16014A   25365.47911712 -.00000260  00000+0  00000+0 0  9990
2 41382   0.0750 309.6454 0002644 334.0839 283.6924  1.00268712 35851
EUTELSAT 117 WEST B     
1 41589U 16038B   25365.45960757  .00000004  00000+0  00000+0 0  9991
2 41589   0.0029 167.8383 0000541 238.9307 101.8260  1.00273050 34988
EUTELSAT 172B           
1 42741U 17029B   25365.51850463  .00000010  00000+0  00000+0 0  9999
2 42741   0.0358 139.8208 0000262  97.9932 221.0197  1.00270313 32055
EUTELSAT 7C             
1 44334U 19034B   25365.32364274  .00000065  00000+0  00000+0 0  9996
2 44334   0.0738 181.4146 0003544  85.6634 316.4011  1.00272678  5151
EUTELSAT 5 WEST B       
1 44624U 19067A   25365.32130273 -.00000026  00000+0  00000+0 0  9992
2 44624   0.0792 321.2989 0003425 317.1604 292.1968  1.00270364 22756
EUTELSAT KONNECT        
1 45027U 20005B   25365.39488322  .00000065  00000+0  00000+0 0  9994
2 45027   0.0675  93.7237 0001741 185.6408 330.0538  1.00270056 22652
